STARLINK-35648          
1 66482U 25262AC  26080.43195076  .00030481  00000+0  11114-2 0  9999
2 66482  42.9986 229.7231 0001387 279.3125  80.7570 15.27616493 20542
STARLINK-35654          
1 66483U 25262AD  26080.42167329  .00026802  00000+0  97865-3 0  9999
2 66483  43.0002 229.6469 0003096 280.0963  79.9539 15.27620953 20703
STARLINK-35371          
1 66484U 25262AE  26080.47306934  .00021151  00000+0  77543-3 0  9995
2 66484  43.0007 230.0341 0001434 254.2823 105.7871 15.27601563 20709
STARLINK-34774          
1 66485U 25263A   26080.27255739  .00021897  00000+0  80234-3 0  9999
2 66485  43.0002 285.0060 0001795 272.3467  87.7179 15.27602237 20673
STARLINK-34844          
1 66486U 25263B   26079.61741119  .00011837  00000+0  43886-3 0  9993
2 66486  42.9996 288.6853 0001046 273.2739  86.7993 15.27587828 20529
STARLINK-34733          
1 66487U 25263C   26079.87640595  .00016453  00000+0  60594-3 0  9992
2 66487  42.9999 287.1892 0001224 284.2438  75.8278 15.27586855 20610
STARLINK-35515          
1 66488U 25263D   26080.60719723  .00045184  00000+0  16394-2 0  9997
2 66488  43.0011 283.2080 0001328 260.7852  99.2850 15.27620272 20728
STARLINK-35696          
1 66489U 25263E   26079.96618435  .00018546  00000+0  68097-3 0  9993
2 66489  43.0032 286.9993 0002181 253.4996 106.5616 15.27618841 20621
STARLINK-35693          
1 66490U 25263F   26080.60205592  .00029189  00000+0  10649-2 0  9998
2 66490  43.0012 283.1736 0001849 269.7195  90.3444 15.27614962 20726
STARLINK-35663          
1 66491U 25263G   26080.56365688  .00029321  00000+0  10696-2 0  9997
2 66491  42.9985 283.7414 0001204 301.1325  58.9408 15.27616016 20715
STARLINK-35673          
1 66492U 25263H   26080.61747436  .00047398  00000+0  17194-2 0  9993
2 66492  43.0010 283.2905 0001260 248.3579 111.7138 15.27609201 20729
STARLINK-35597          
1 66493U 25263J   26079.59572898  .00014063  00000+0  51988-3 0  9990
2 66493  42.9997 289.3805 0002413 274.4153  85.6423 15.27560679 20560
STARLINK-35689          
1 66494U 25263K   26080.58421749  .00030690  00000+0  11193-2 0  9997
2 66494  42.9941 283.9050 0000157  22.6973 337.3886 15.27604445 20715
STARLINK-35832          
1 66495U 25263L   26080.61361911  .00048685  00000+0  17656-2 0  9999
2 66495  43.0017 283.2579 0001455 252.6803 107.3890 15.27607913 20724
STARLINK-35909          
1 66496U 25263M   26080.57136342  .00039999  00000+0  14530-2 0  9999
2 66496  42.9990 283.7985 0002387 282.6146  77.4439 15.27628403 20719
STARLINK-35899          
1 66497U 25263N   26080.27641427  .00016712  00000+0  61527-3 0  9999
2 66497  43.0043 285.0221 0000402 293.1739  66.9071 15.27589767 20679
STARLINK-35907          
1 66498U 25263P   26080.63546583  .00031555  00000+0  11501-2 0  9995
2 66498  42.9995 283.4286 0001496 267.5938  92.4742 15.27613790 20726
STARLINK-35816          
1 66499U 25263Q   26079.92650949  .00025061  00000+0  91733-3 0  9999
2 66499  42.9989 287.5652 0001708 270.2377  89.8279 15.27572733 20610
STARLINK-35894          
1 66500U 25263R   26080.61827753  .00031751  00000+0  11574-2 0  9996
2 66500  43.0015 286.7599 0000753 271.0196  89.0569 15.27606377 20686
STARLINK-35897          
1 66501U 25263S   26080.62390846  .00028121  00000+0  10260-2 0  9994
2 66501  42.9999 283.3395 0001610 280.5394  79.5276 15.27628695 20722
STARLINK-35922          
1 66502U 25263T   26080.57777980  .00046244  00000+0  16778-2 0  9993
2 66502  43.0002 283.8471 0001651 244.4333 115.6348 15.27613210 20715
STARLINK-35917          
1 66503U 25263U   26080.56622673  .00037485  00000+0  13648-2 0  9991
2 66503  42.9990 283.7603 0001331 262.1071  97.9630 15.27578933 20715
STARLINK-35916          
1 66504U 25263V   26080.56960450  .00030041  00000+0  10952-2 0  9996
2 66504  42.9998 287.2783 0001183 217.5885 142.4884 15.27626195 20670
STARLINK-34766          
1 66505U 25263W   26080.59177697  .00032024  00000+0  11673-2 0  9997
2 66505  42.9979 283.0909 0001391 270.1466  89.9226 15.27605177 20723
STARLINK-34765          
1 66506U 25263X   26080.62132864  .00032904  00000+0  11987-2 0  9994
2 66506  43.0013 283.3113 0001292 221.7965 138.2788 15.27614016 20724
STARLINK-34767          
1 66507U 25263Y   26080.57393440  .00024165  00000+0  88371-3 0  9990
2 66507  42.9991 283.8217 0001385 269.5391  90.5302 15.27619489 20714
STARLINK-35608          
1 66508U 25263Z   26080.56236924  .00035823  00000+0  13032-2 0  9997
2 66508  42.9989 283.7342 0001799 294.4701  65.5963 15.27624945 20719
STARLINK-35598          
1 66509U 25263AA  26080.58550094  .00028290  00000+0  10326-2 0  9990
2 66509  42.9980 283.9073 0000759 281.9413  78.1354 15.27612462 20715
STARLINK-35600          
1 66510U 25263AB  26080.58166090  .00024962  00000+0  91237-3 0  9994
2 66510  42.9993 283.8780 0001301 266.2895  93.7808 15.27621959 20717
